{"fetched_at":"2026-07-09T18:16:40.685Z","source":"https://celestrak.org/NORAD/elements/gp.php?GROUP=kuiper&FORMAT=JSON","constellation":"kuiper","records":[{"OBJECT_NAME":"KUIPER-00027","OBJECT_ID":"2025-088S","EPOCH":"2026-07-08T12:55:56.571744","CLASSIFICATION_TYPE":"U","MEAN_MOTION":14.79917639,"ECCENTRICITY":0.00005695,"INCLINATION":51.9024,"RA_OF_ASC_NODE":281.204,"ARG_OF_PERICENTER":93.0525,"MEAN_ANOMALY":267.0503,"EPHEMERIS_TYPE":0,"NORAD_CAT_ID":63740,"ELEMENT_SET_NO":999,"REV_AT_EPOCH":6551,"BSTAR":0.00018476157,"MEAN_MOTION_DOT":0.00001187,"MEAN_MOTION_DDOT":0},{"OBJECT_NAME":"KUIPER-00028","OBJECT_ID":"2025-088T","EPOCH":"2026-07-08T12:11:11.446368","CLASSIFICATION_TYPE":"U","MEAN_MOTION":14.79923823,"ECCENTRICITY":0.00007955,"INCLINATION":51.9008,"RA_OF_ASC_NODE":278.7925,"ARG_OF_PERICENTER":112.4618,"MEAN_ANOMALY":247.6428,"EPHEMERIS_TYPE":0,"NORAD_CAT_ID":63741,"ELEMENT_SET_NO":999,"REV_AT_EPOCH":6595,"BSTAR":0.00012466347,"MEAN_MOTION_DOT":0.00000729,"MEAN_MOTION_DDOT":0},{"OBJECT_NAME":"KUIPER-00029","OBJECT_ID":"2025-088U","EPOCH":"2026-07-08T13:13:53.184864","CLASSIFICATION_TYPE":"U","MEAN_MOTION":14.7990887,"ECCENTRICITY":0.00002263,"INCLINATION":51.9016,"RA_OF_ASC_NODE":277.2843,"ARG_OF_PERICENTER":177.4933,"MEAN_ANOMALY":182.603,"EPHEMERIS_TYPE":0,"NORAD_CAT_ID":63742,"ELEMENT_SET_NO":999,"REV_AT_EPOCH":6550,"BSTAR":0.00031877614,"MEAN_MOTION_DOT":0.00002209,"MEAN_MOTION_DDOT":0},{"OBJECT_NAME":"KUIPER-00030","OBJECT_ID":"2025-088V","EPOCH":"2026-07-08T14:09:52.493760","CLASSIFICATION_TYPE":"U","MEAN_MOTION":14.7992501,"ECCENTRICITY":0.00006563,"INCLINATION":51.9014,"RA_OF_ASC_NODE":295.9364,"ARG_OF_PERICENTER":109.0257,"MEAN_ANOMALY":251.0777,"EPHEMERIS_TYPE":0,"NORAD_CAT_ID":63743,"ELEMENT_SET_NO":999,"REV_AT_EPOCH":6553,"BSTAR":0.00013400871,"MEAN_MOTION_DOT":0.000008,"MEAN_MOTION_DDOT":0},{"OBJECT_NAME":"KUIPER-00031","OBJECT_ID":"2025-088W","EPOCH":"2026-07-07T07:52:11.128512","CLASSIFICATION_TYPE":"U","MEAN_MOTION":14.76529334,"ECCENTRICITY":0.00020254,"INCLINATION":51.9009,"RA_OF_ASC_NODE":286.2436,"ARG_OF_PERICENTER":179.1437,"MEAN_ANOMALY":180.9528,"EPHEMERIS_TYPE":0,"NORAD_CAT_ID":63744,"ELEMENT_SET_NO":999,"REV_AT_EPOCH":6527,"BSTAR":0.00038331834,"MEAN_MOTION_DOT":0.00002482,"MEAN_MOTION_DDOT":0},{"OBJECT_NAME":"KUIPER-00032","OBJECT_ID":"2025-088X","EPOCH":"2026-07-08T15:14:24.088992","CLASSIFICATION_TYPE":"U","MEAN_MOTION":15.40793404,"ECCENTRICITY":0.00031833,"INCLINATION":51.866,"RA_OF_ASC_NODE":157.7825,"ARG_OF_PERICENTER":183.1019,"MEAN_ANOMALY":176.995,"EPHEMERIS_TYPE":0,"NORAD_CAT_ID":63745,"ELEMENT_SET_NO":999,"REV_AT_EPOCH":6817,"BSTAR":0.00027098256,"MEAN_MOTION_DOT":0.00010889,"MEAN_MOTION_DDOT":0},{"OBJECT_NAME":"KUIPER-00033","OBJECT_ID":"2025-088Y","EPOCH":"2026-07-08T19:26:56.387904","CLASSIFICATION_TYPE":"U","MEAN_MOTION":14.79921935,"ECCENTRICITY":0.00006045,"INCLINATION":51.9006,"RA_OF_ASC_NODE":309.9861,"ARG_OF_PERICENTER":105.8696,"MEAN_ANOMALY":254.2333,"EPHEMERIS_TYPE":0,"NORAD_CAT_ID":63746,"ELEMENT_SET_NO":999,"REV_AT_EPOCH":6555,"BSTAR":0.00032413678,"MEAN_MOTION_DOT":0.0000225,"MEAN_MOTION_DDOT":0},{"OBJECT_NAME":"KUIPER-00034","OBJECT_ID":"2025-088Z","EPOCH":"2026-07-08T12:18:56.667168","CLASSIFICATION_TYPE":"U","MEAN_MOTION":14.7991615,"ECCENTRICITY":0.00007177,"INCLINATION":51.902,"RA_OF_ASC_NODE":273.8334,"ARG_OF_PERICENTER":77.5109,"MEAN_ANOMALY":282.5933,"EPHEMERIS_TYPE":0,"NORAD_CAT_ID":63747,"ELEMENT_SET_NO":999,"REV_AT_EPOCH":6571,"BSTAR":0.00012077873,"MEAN_MOTION_DOT":0.00000699,"MEAN_MOTION_DDOT":0},{"OBJECT_NAME":"KUIPER-00035","OBJECT_ID":"2025-088AA","EPOCH":"2026-07-07T08:07:00.022944","CLASSIFICATION_TYPE":"U","MEAN_MOTION":14.79923375,"ECCENTRICITY":0.00007255,"INCLINATION":51.9017,"RA_OF_ASC_NODE":304.0044,"ARG_OF_PERICENTER":114.5492,"MEAN_ANOMALY":245.5546,"EPHEMERIS_TYPE":0,"NORAD_CAT_ID":63748,"ELEMENT_SET_NO":999,"REV_AT_EPOCH":6524,"BSTAR":0.000008535039,"MEAN_MOTION_DOT":-0.00000156,"MEAN_MOTION_DDOT":0},{"OBJECT_NAME":"KUIPER-00037","OBJECT_ID":"2025-088AB","EPOCH":"2026-07-08T06:38:12.871104","CLASSIFICATION_TYPE":"U","MEAN_MOTION":14.79920678,"ECCENTRICITY":0.0000521,"INCLINATION":51.9021,"RA_OF_ASC_NODE":298.7134,"ARG_OF_PERICENTER":72.1729,"MEAN_ANOMALY":287.929,"EPHEMERIS_TYPE":0,"NORAD_CAT_ID":63749,"ELEMENT_SET_NO":999,"REV_AT_EPOCH":6618,"BSTAR":-0.000048031724,"MEAN_MOTION_DOT":-0.00000587,"MEAN_MOTION_DDOT":0},{"OBJECT_NAME":"KUIPER-00038","OBJECT_ID":"2025-088AC","EPOCH":"2026-07-07T06:04:26.056704","CLASSIFICATION_TYPE":"U","MEAN_MOTION":14.79925691,"ECCENTRICITY":0.00006582,"INCLINATION":51.9044,"RA_OF_ASC_NODE":289.4043,"ARG_OF_PERICENTER":84.0209,"MEAN_ANOMALY":276.0829,"EPHEMERIS_TYPE":0,"NORAD_CAT_ID":63750,"ELEMENT_SET_NO":999,"REV_AT_EPOCH":6522,"BSTAR":-0.000002584213,"MEAN_MOTION_DOT":-0.00000241,"MEAN_MOTION_DDOT":0},{"OBJECT_NAME":"KUIPER-00039","OBJECT_ID":"2025-134A","EPOCH":"2026-07-08T20:18:46.305792","CLASSIFICATION_TYPE":"U","MEAN_MOTION":14.79923117,"ECCENTRICITY":0.00006069,"INCLINATION":51.9008,"RA_OF_ASC_NODE":57.3544,"ARG_OF_PERICENTER":113.2799,"MEAN_ANOMALY":246.8228,"EPHEMERIS_TYPE":0,"NORAD_CAT_ID":64500,"ELEMENT_SET_NO":999,"REV_AT_EPOCH":5801,"BSTAR":0.00030730341,"MEAN_MOTION_DOT":0.00002122,"MEAN_MOTION_DDOT":0},{"OBJECT_NAME":"KUIPER-00040","OBJECT_ID":"2025-134B","EPOCH":"2026-07-08T20:51:52.587360","CLASSIFICATION_TYPE":"U","MEAN_MOTION":14.799218,"ECCENTRICITY":0.00006989,"INCLINATION":51.8968,"RA_OF_ASC_NODE":67.3337,"ARG_OF_PERICENTER":111.3461,"MEAN_ANOMALY":248.7576,"EPHEMERIS_TYPE":0,"NORAD_CAT_ID":64501,"ELEMENT_SET_NO":999,"REV_AT_EPOCH":5787,"BSTAR":0.00030615866,"MEAN_MOTION_DOT":0.00002113,"MEAN_MOTION_DDOT":0},{"OBJECT_NAME":"KUIPER-00041","OBJECT_ID":"2025-134C","EPOCH":"2026-07-08T21:36:35.298720","CLASSIFICATION_TYPE":"U","MEAN_MOTION":14.79928396,"ECCENTRICITY":0.0000717,"INCLINATION":51.8993,"RA_OF_ASC_NODE":69.5812,"ARG_OF_PERICENTER":102.2204,"MEAN_ANOMALY":257.8839,"EPHEMERIS_TYPE":0,"NORAD_CAT_ID":64502,"ELEMENT_SET_NO":999,"REV_AT_EPOCH":5784,"BSTAR":0.00032430414,"MEAN_MOTION_DOT":0.00002252,"MEAN_MOTION_DDOT":0},{"OBJECT_NAME":"KUIPER-00042","OBJECT_ID":"2025-134D","EPOCH":"2026-07-08T20:55:43.687488","CLASSIFICATION_TYPE":"U","MEAN_MOTION":14.79924274,"ECCENTRICITY":0.00006509,"INCLINATION":51.8987,"RA_OF_ASC_NODE":64.6857,"ARG_OF_PERICENTER":94.028,"MEAN_ANOMALY":266.0757,"EPHEMERIS_TYPE":0,"NORAD_CAT_ID":64503,"ELEMENT_SET_NO":999,"REV_AT_EPOCH":5791,"BSTAR":0.00031873519,"MEAN_MOTION_DOT":0.00002209,"MEAN_MOTION_DDOT":0},{"OBJECT_NAME":"KUIPER-00043","OBJECT_ID":"2025-134E","EPOCH":"2026-07-08T19:30:08.110368","CLASSIFICATION_TYPE":"U","MEAN_MOTION":14.79926963,"ECCENTRICITY":0.00008042,"INCLINATION":51.9012,"RA_OF_ASC_NODE":57.4451,"ARG_OF_PERICENTER":104.4926,"MEAN_ANOMALY":255.6126,"EPHEMERIS_TYPE":0,"NORAD_CAT_ID":64504,"ELEMENT_SET_NO":999,"REV_AT_EPOCH":5801,"BSTAR":0.00030504619,"MEAN_MOTION_DOT":0.00002105,"MEAN_MOTION_DDOT":0}]}
