KUIPER-00027            
1 63740U 25088S   26189.53884921  .00001187  00000+0  18476-3 0  9994
2 63740  51.9024 281.2040 0000569  93.0525 267.0503 14.79917639 65510
KUIPER-00028            
1 63741U 25088T   26189.50777137  .00000729  00000+0  12466-3 0  9996
2 63741  51.9008 278.7925 0000795 112.4618 247.6428 14.79923823 65956
KUIPER-00029            
1 63742U 25088U   26189.55131001  .00002209  00000+0  31878-3 0  9999
2 63742  51.9016 277.2843 0000226 177.4933 182.6030 14.79908870 65502
KUIPER-00030            
1 63743U 25088V   26189.59019090  .00000800  00000+0  13401-3 0  9994
2 63743  51.9014 295.9364 0000656 109.0257 251.0777 14.79925010 65530
KUIPER-00031            
1 63744U 25088W   26188.32790658  .00002482  00000+0  38332-3 0  9999
2 63744  51.9009 286.2436 0002025 179.1437 180.9528 14.76529334 65279
KUIPER-00032            
1 63745U 25088X   26189.63500103  .00010889  00000+0  27098-3 0  9996
2 63745  51.8660 157.7825 0003183 183.1019 176.9950 15.40793404 68172
KUIPER-00033            
1 63746U 25088Y   26189.81037486  .00002250  00000+0  32414-3 0  9997
2 63746  51.9006 309.9861 0000604 105.8696 254.2333 14.79921935 65553
KUIPER-00034            
1 63747U 25088Z   26189.51315587  .00000699  00000+0  12078-3 0  9995
2 63747  51.9020 273.8334 0000717  77.5109 282.5933 14.79916150 65714
KUIPER-00035            
1 63748U 25088AA  26188.33819471 -.00000156  00000+0  85350-5 0  9990
2 63748  51.9017 304.0044 0000725 114.5492 245.5546 14.79923375 65246
KUIPER-00037            
1 63749U 25088AB  26189.27653786 -.00000587  00000+0 -48032-4 0  9994
2 63749  51.9021 298.7134 0000521  72.1729 287.9290 14.79920678 66180
KUIPER-00038            
1 63750U 25088AC  26188.25307936 -.00000241  00000+0 -25842-5 0  9998
2 63750  51.9044 289.4043 0000658  84.0209 276.0829 14.79925691 65220
KUIPER-00039            
1 64500U 25134A   26189.84636928  .00002122  00000+0  30730-3 0  9994
2 64500  51.9008  57.3544 0000606 113.2799 246.8228 14.79923117 58012
KUIPER-00040            
1 64501U 25134B   26189.86935865  .00002113  00000+0  30616-3 0  9992
2 64501  51.8968  67.3337 0000698 111.3461 248.7576 14.79921800 57871
KUIPER-00041            
1 64502U 25134C   26189.90040855  .00002252  00000+0  32430-3 0  9994
2 64502  51.8993  69.5812 0000717 102.2204 257.8839 14.79928396 57845
KUIPER-00042            
1 64503U 25134D   26189.87203342  .00002209  00000+0  31874-3 0  9996
2 64503  51.8987  64.6857 0000650  94.0280 266.0757 14.79924274 57912
KUIPER-00043            
1 64504U 25134E   26189.81259387  .00002105  00000+0  30505-3 0  9996
2 64504  51.9012  57.4451 0000804 104.4926 255.6126 14.79926963 58010
